{"type": "FeatureCollection", "features": [{"type": "Feature", "properties": {"norad_id": 22675, "name": "COSMOS 2251", "group": "cosmos-2251-debris", "lat": -20.928468608846323, "lon": -44.15187475466459, "alt_km": 779.2740582384322, "timestamp": "2025-12-09T07:41:33.603791+00:00", "meta": {"OBJECT_NAME": "COSMOS 2251", "OBJECT_ID": "1993-036A", "EPOCH": "2025-12-08T23:25:03.759744", "MEAN_MOTION": 14.33202869, "ECCENTRICITY": 0.00238562, "INCLINATION": 74.0393, "RA_OF_ASC_NODE": 322.7613, "ARG_OF_PERICENTER": 46.1952, "MEAN_ANOMALY": 314.1166, "EPHEMERIS_TYPE": 0, "CLASSIFICATION_TYPE": "U", "NORAD_CAT_ID": 22675, "ELEMENT_SET_NO": 999, "REV_AT_EPOCH": 69719, "BSTAR": 8.239903e-05, "MEAN_MOTION_DOT": 2.01e-06, "MEAN_MOTION_DDOT": 0}, "tle": {"line1": "1 22675U 93036A   25342.97573796  .00000201  00000+0  82399-4 0  9999", "line2": "2 22675  74.0393 322.7613 0023856  46.1952 314.1166 14.33202869697197"}}, "geometry": {"type": "Point", "coordinates": [-44.15187475466459, -20.928468608846323]}}, {"type": "Feature", "properties": {"norad_id": 33757, "name": "COSMOS 2251 DEB", "group": "cosmos-2251-debris", "lat": 24.02010068808425, "lon": -22.818819521474275, "alt_km": 774.0500979671533, "timestamp": "2025-12-09T07:41:33.603826+00:00", "meta": {"OBJECT_NAME": "COSMOS 2251 DEB", "OBJECT_ID": "1993-036E", "EPOCH": "2025-12-08T23:21:08.248032", "MEAN_MOTION": 14.32579366, "ECCENTRICITY": 0.00151114, "INCLINATION": 74.0366, "RA_OF_ASC_NODE": 330.4866, "ARG_OF_PERICENTER": 344.4603, "MEAN_ANOMALY": 49.0556, "EPHEMERIS_TYPE": 0, "CLASSIFICATION_TYPE": "U", "NORAD_CAT_ID": 33757, "ELEMENT_SET_NO": 999, "REV_AT_EPOCH": 87942, "BSTAR": 6.7758133e-05, "MEAN_MOTION_DOT": 1.58e-06, "MEAN_MOTION_DDOT": 0}, "tle": {"line1": "1 33757U 93036E   25342.97301213  .00000158  00000+0  67758-4 0  9998", "line2": "2 33757  74.0366 330.4866 0015111 344.4603  49.0556 14.32579366879421"}}, "geometry": {"type": "Point", "coordinates": [-22.818819521474275, 24.02010068808425]}}, {"type": "Feature", "properties": {"norad_id": 33758, "name": "COSMOS 2251 DEB", "group": "cosmos-2251-debris", "lat": 72.62955890394436, "lon": -24.819287377746893, "alt_km": 725.3802720266985, "timestamp": "2025-12-09T07:41:33.603840+00:00", "meta": {"OBJECT_NAME": "COSMOS 2251 DEB", "OBJECT_ID": "1993-036F", "EPOCH": "2025-12-08T18:17:34.137888", "MEAN_MOTION": 14.51558503, "ECCENTRICITY": 0.00174924, "INCLINATION": 74.0277, "RA_OF_ASC_NODE": 222.5216, "ARG_OF_PERICENTER": 289.5664, "MEAN_ANOMALY": 130.8592, "EPHEMERIS_TYPE": 0, "CLASSIFICATION_TYPE": "U", "NORAD_CAT_ID": 33758, "ELEMENT_SET_NO": 999, "REV_AT_EPOCH": 88247, "BSTAR": 0.0013664349, "MEAN_MOTION_DOT": 5.456e-05, "MEAN_MOTION_DDOT": 0}, "tle": {"line1": "1 33758U 93036F   25342.76220067  .00005456  00000+0  13664-2 0  9994", "line2": "2 33758  74.0277 222.5216 0017492 289.5664 130.8592 14.51558503882472"}}, "geometry": {"type": "Point", "coordinates": [-24.819287377746893, 72.62955890394436]}}, {"type": "Feature", "properties": {"norad_id": 33760, "name": "COSMOS 2251 DEB", "group": "cosmos-2251-debris", "lat": -51.289175437851114, "lon": 128.66338276727865, "alt_km": 791.9594718632025, "timestamp": "2025-12-09T07:41:33.603855+00:00", "meta": {"OBJECT_NAME": "COSMOS 2251 DEB", "OBJECT_ID": "1993-036H", "EPOCH": "2025-12-08T20:51:53.243136", "MEAN_MOTION": 14.35669097, "ECCENTRICITY": 0.00197101, "INCLINATION": 74.0319, "RA_OF_ASC_NODE": 288.5592, "ARG_OF_PERICENTER": 27.9892, "MEAN_ANOMALY": 35.4497, "EPHEMERIS_TYPE": 0, "CLASSIFICATION_TYPE": "U", "NORAD_CAT_ID": 33760, "ELEMENT_SET_NO": 999, "REV_AT_EPOCH": 88069, "BSTAR": 0.00023034471, "MEAN_MOTION_DOT": 6.4e-06, "MEAN_MOTION_DDOT": 0}, "tle": {"line1": "1 33760U 93036H   25342.86936624  .00000640  00000+0  23034-3 0  9994", "line2": "2 33760  74.0319 288.5592 0019710  27.9892  35.4497 14.35669097880692"}}, "geometry": {"type": "Point", "coordinates": [128.66338276727865, -51.289175437851114]}}, {"type": "Feature", "properties": {"norad_id": 33761, "name": "COSMOS 2251 DEB", "group": "cosmos-2251-debris", "lat": 70.61549436008195, "lon": -47.0542925447501, "alt_km": 745.6929475082125, "timestamp": "2025-12-09T07:41:33.603867+00:00", "meta": {"OBJECT_NAME": "COSMOS 2251 DEB", "OBJECT_ID": "1993-036J", "EPOCH": "2025-12-08T19:59:05.455392", "MEAN_MOTION": 14.42527641, "ECCENTRICITY": 0.00229259, "INCLINATION": 74.0372, "RA_OF_ASC_NODE": 259.4117, "ARG_OF_PERICENTER": 340.1852, "MEAN_ANOMALY": 86.1409, "EPHEMERIS_TYPE": 0, "CLASSIFICATION_TYPE": "U", "NORAD_CAT_ID": 33761, "ELEMENT_SET_NO": 999, "REV_AT_EPOCH": 88178, "BSTAR": 0.00092875648, "MEAN_MOTION_DOT": 3.064e-05, "MEAN_MOTION_DDOT": 0}, "tle": {"line1": "1 33761U 93036J   25342.83270203  .00003064  00000+0  92876-3 0  9999", "line2": "2 33761  74.0372 259.4117 0022925 340.1852  86.1409 14.42527641881783"}}, "geometry": {"type": "Point", "coordinates": [-47.0542925447501, 70.61549436008195]}}, {"type": "Feature", "properties": {"norad_id": 33762, "name": "COSMOS 2251 DEB", "group": "cosmos-2251-debris", "lat": -16.380039780028916, "lon": 141.10319046086772, "alt_km": 794.6172373638938, "timestamp": "2025-12-09T07:41:33.603883+00:00", "meta": {"OBJECT_NAME": "COSMOS 2251 DEB", "OBJECT_ID": "1993-036K", "EPOCH": "2025-12-08T22:43:02.039232", "MEAN_MOTION": 14.33661752, "ECCENTRICITY": 0.00148511, "INCLINATION": 74.0414, "RA_OF_ASC_NODE": 316.9618, "ARG_OF_PERICENTER": 19.5182, "MEAN_ANOMALY": 48.0345, "EPHEMERIS_TYPE": 0, "CLASSIFICATION_TYPE": "U", "NORAD_CAT_ID": 33762, "ELEMENT_SET_NO": 999, "REV_AT_EPOCH": 87993, "BSTAR": 8.0824259e-05, "MEAN_MOTION_DOT": 1.98e-06, "MEAN_MOTION_DDOT": 0}, "tle": {"line1": "1 33762U 93036K   25342.94655138  .00000198  00000+0  80824-4 0  9992", "line2": "2 33762  74.0414 316.9618 0014851  19.5182  48.0345 14.33661752879930"}}, "geometry": {"type": "Point", "coordinates": [141.10319046086772, -16.380039780028916]}}, {"type": "Feature", "properties": {"norad_id": 33764, "name": "COSMOS 2251 DEB", "group": "cosmos-2251-debris", "lat": -73.27290009448724, "lon": 171.25601375023427, "alt_km": 750.9099677500071, "timestamp": "2025-12-09T07:41:33.603894+00:00", "meta": {"OBJECT_NAME": "COSMOS 2251 DEB", "OBJECT_ID": "1993-036M", "EPOCH": "2025-12-08T22:25:54.234336", "MEAN_MOTION": 14.3949703, "ECCENTRICITY": 0.00240962, "INCLINATION": 74.0345, "RA_OF_ASC_NODE": 279.6832, "ARG_OF_PERICENTER": 246.1074, "MEAN_ANOMALY": 179.9069, "EPHEMERIS_TYPE": 0, "CLASSIFICATION_TYPE": "U", "NORAD_CAT_ID": 33764, "ELEMENT_SET_NO": 999, "REV_AT_EPOCH": 88102, "BSTAR": 0.00050916792, "MEAN_MOTION_DOT": 1.566e-05, "MEAN_MOTION_DDOT": 0}, "tle": {"line1": "1 33764U 93036M   25342.93465549  .00001566  00000+0  50917-3 0  9997", "line2": "2 33764  74.0345 279.6832 0024096 246.1074 179.9069 14.39497030881020"}}, "geometry": {"type": "Point", "coordinates": [171.25601375023427, -73.27290009448724]}}, {"type": "Feature", "properties": {"norad_id": 33765, "name": "COSMOS 2251 DEB", "group": "cosmos-2251-debris", "lat": -48.07539602661658, "lon": 161.5527655393082, "alt_km": 506.7593956158662, "timestamp": "2025-12-09T07:41:33.603906+00:00", "meta": {"OBJECT_NAME": "COSMOS 2251 DEB", "OBJECT_ID": "1993-036N", "EPOCH": "2025-12-08T22:53:48.744960", "MEAN_MOTION": 15.09632737, "ECCENTRICITY": 0.00662938, "INCLINATION": 74.0093, "RA_OF_ASC_NODE": 180.9323, "ARG_OF_PERICENTER": 273.7841, "MEAN_ANOMALY": 204.2063, "EPHEMERIS_TYPE": 0, "CLASSIFICATION_TYPE": "U", "NORAD_CAT_ID": 33765, "ELEMENT_SET_NO": 999, "REV_AT_EPOCH": 89561, "BSTAR": 0.0022332343, "MEAN_MOTION_DOT": 0.00037995, "MEAN_MOTION_DDOT": 0}, "tle": {"line1": "1 33765U 93036N   25342.95403640  .00037995  00000+0  22332-2 0  9998", "line2": "2 33765  74.0093 180.9323 0066293 273.7841 204.2063 15.09632737895612"}}, "geometry": {"type": "Point", "coordinates": [161.5527655393082, -48.07539602661658]}}, {"type": "Feature", "properties": {"norad_id": 33766, "name": "COSMOS 2251 DEB", "group": "cosmos-2251-debris", "lat": 2.641368282437687, "lon": 141.93740412548541, "alt_km": 733.9023099463757, "timestamp": "2025-12-09T07:41:33.603918+00:00", "meta": {"OBJECT_NAME": "COSMOS 2251 DEB", "OBJECT_ID": "1993-036P", "EPOCH": "2025-12-08T21:38:26.204352", "MEAN_MOTION": 14.34915811, "ECCENTRICITY": 0.00639549, "INCLINATION": 74.1855, "RA_OF_ASC_NODE": 141.9485, "ARG_OF_PERICENTER": 346.4117, "MEAN_ANOMALY": 13.5311, "EPHEMERIS_TYPE": 0, "CLASSIFICATION_TYPE": "U", "NORAD_CAT_ID": 33766, "ELEMENT_SET_NO": 999, "REV_AT_EPOCH": 87690, "BSTAR": 0.00064549793, "MEAN_MOTION_DOT": 1.853e-05, "MEAN_MOTION_DDOT": 0}, "tle": {"line1": "1 33766U 93036P   25342.90169218  .00001853  00000+0  64550-3 0  9997", "line2": "2 33766  74.1855 141.9485 0063954 346.4117  13.5311 14.34915811876903"}}, "geometry": {"type": "Point", "coordinates": [141.93740412548541, 2.641368282437687]}}, {"type": "Feature", "properties": {"norad_id": 33768, "name": "COSMOS 2251 DEB", "group": "cosmos-2251-debris", "lat": 24.838811491215093, "lon": 37.78840538367876, "alt_km": 1209.3222370499634, "timestamp": "2025-12-09T07:41:33.603929+00:00", "meta": {"OBJECT_NAME": "COSMOS 2251 DEB", "OBJECT_ID": "1993-036R", "EPOCH": "2025-12-08T20:42:24.793344", "MEAN_MOTION": 13.58450215, "ECCENTRICITY": 0.03661219, "INCLINATION": 74.0687, "RA_OF_ASC_NODE": 226.1242, "ARG_OF_PERICENTER": 24.7151, "MEAN_ANOMALY": 48.3148, "EPHEMERIS_TYPE": 0, "CLASSIFICATION_TYPE": "U", "NORAD_CAT_ID": 33768, "ELEMENT_SET_NO": 999, "REV_AT_EPOCH": 83243, "BSTAR": 0.00060885861, "MEAN_MOTION_DOT": 6.67e-06, "MEAN_MOTION_DDOT": 0}, "tle": {"line1": "1 33768U 93036R   25342.86278696  .00000667  00000+0  60886-3 0  9995", "line2": "2 33768  74.0687 226.1242 0366121  24.7151  48.3148 13.58450215832431"}}, "geometry": {"type": "Point", "coordinates": [37.78840538367876, 24.838811491215093]}}]}